OBJECT_NAME,OBJECT_ID,EPOCH,MEAN_MOTION,ECCENTRICITY,INCLINATION,RA_OF_ASC_NODE,ARG_OF_PERICENTER,MEAN_ANOMALY,NORAD_CAT_ID,ELEMENT_SET_NO,REV_AT_EPOCH,BSTAR,MEAN_MOTION_DOT,MEAN_MOTION_DDOT
STARLINK-36941,2026-039F,2026-03-21T00:00:00.999648,15.5060809,0.00015297,42.9998,347.4655,267.8962,168.1105,67991.0,999.0,469.0,-0.0018402622,-0.00106951,0.0
STARLINK-36950,2026-039G,2026-03-21T04:00:00.999936,15.5049463,0.00016868,42.9997,346.1124,256.9461,183.2568,67992.0,999.0,472.0,0.0023556296,0.00139929,0.0
STARLINK-36975,2026-039H,2026-03-21T04:00:00.999936,15.50567094,0.00016281,42.9999,346.0151,261.002,218.5006,67993.0,999.0,472.0,-0.00033181887,-0.00019751,0.0
STARLINK-36993,2026-039J,2026-03-21T04:00:00.999936,15.54529583,0.00016833,42.9997,345.3237,273.4989,125.9041,67994.0,999.0,472.0,-0.031042389,-0.01858546,0.0
STARLINK-36968,2026-039K,2026-03-21T04:00:00.999936,15.50576811,0.00014779,42.9996,346.215,266.9663,131.4115,67995.0,999.0,472.0,-0.00057764265,-0.00034079,0.0
STARLINK-36979,2026-039L,2026-03-21T04:00:00.999936,15.56104759,0.00014896,42.9992,345.2227,269.4281,170.6263,67996.0,999.0,472.0,-0.02903772,-0.01845281,0.0
STARLINK-36994,2026-039M,2026-03-21T04:00:00.999936,15.50481956,0.00018933,42.9999,345.5525,259.0634,46.9767,67997.0,999.0,472.0,0.002279802,0.00135272,0.0
STARLINK-36988,2026-039N,2026-03-21T04:00:00.999936,15.50821718,9.926e-05,42.9998,345.4945,241.8293,87.825,67998.0,999.0,472.0,-0.0074897319,-0.00420541,0.0
STARLINK-36926,2026-039P,2026-03-21T04:00:00.999936,15.50555115,0.00010449,42.9997,345.529,264.9156,50.4501,67999.0,999.0,472.0,-8.2208141e-05,-5.156e-05,0.0
STARLINK-36931,2026-039Q,2026-03-21T04:00:00.999936,15.54432837,0.0001723,42.9998,345.2645,271.1492,151.7145,68000.0,999.0,472.0,-0.030998163,-0.01850354,0.0
STARLINK-36903,2026-039R,2026-03-21T04:00:00.999936,15.50540141,0.00018054,42.9998,345.5171,272.5943,48.2022,68001.0,999.0,472.0,0.00070454244,0.00041151,0.0
STARLINK-36898,2026-039S,2026-03-21T04:00:00.999936,15.53223317,0.0002019,42.9994,345.3004,255.6537,152.9989,68002.0,999.0,472.0,-0.027385688,-0.01591883,0.0
STARLINK-36862,2026-039T,2026-03-21T04:00:00.999936,15.50785266,0.00012442,42.9997,345.4108,237.9628,124.8136,68003.0,999.0,472.0,-0.0071289066,-0.00400788,0.0
STARLINK-36888,2026-039U,2026-03-21T04:00:00.999936,15.50574165,9.895e-05,42.9999,345.4652,262.9069,78.2512,68004.0,999.0,472.0,-0.0010356769,-0.00060619,0.0
STARLINK-36910,2026-039V,2026-03-21T04:00:00.999936,15.54448637,0.00016373,42.9998,345.2178,286.1407,155.2727,68005.0,999.0,472.0,-0.029972068,-0.01796828,0.0
STARLINK-36889,2026-039W,2026-03-21T04:00:00.999936,15.50569161,9.542e-05,42.9997,345.5307,251.2789,62.9045,68006.0,999.0,472.0,-0.00048146353,-0.00028473,0.0
STARLINK-36592,2026-039X,2026-03-21T04:00:00.999936,15.53573045,0.0001878,42.9993,345.2396,275.5118,157.4261,68007.0,999.0,472.0,-0.030579822,-0.0177753,0.0
STARLINK-36911,2026-039Y,2026-03-21T04:00:00.999936,15.5223363,0.00014317,42.9996,345.3202,281.1736,118.3527,68008.0,999.0,472.0,-0.036984508,-0.02051517,0.0
STARLINK-36956,2026-039Z,2026-03-21T04:00:00.999936,15.50642691,0.00016791,42.9995,345.3823,264.0354,109.6447,68009.0,999.0,472.0,-0.0026334308,-0.00152217,0.0
STARLINK-36953,2026-039AA,2026-03-21T04:00:00.999936,15.58375292,0.00012105,43.0004,344.9304,269.1782,287.7142,68010.0,999.0,472.0,-0.02646358,-0.01833877,0.0
STARLINK-36991,2026-039AB,2026-03-21T04:00:00.999936,15.50568386,0.00022538,42.9999,346.0595,265.7657,193.6661,68011.0,999.0,472.0,-0.00031143623,-0.00018563,0.0
STARLINK-36936,2026-039AC,2026-03-21T04:00:00.999936,15.50459326,0.00014537,42.9996,345.3429,282.3349,106.8552,68012.0,999.0,472.0,0.0024584823,0.00145983,0.0
STARLINK-36967,2026-039AD,2026-03-21T04:00:00.999936,15.50563092,0.00016191,43.0002,345.9863,274.7228,214.6,68013.0,999.0,472.0,-0.00027295526,-0.00016312,0.0
STARLINK-36985,2026-039AE,2026-03-21T04:00:00.999936,15.58869618,0.00013268,43.0001,344.884,266.0899,309.1871,68014.0,999.0,472.0,-0.026120656,-0.01843523,0.0
STARLINK-36335,2026-040A,2026-03-21T04:00:00.999936,15.75250465,0.00014441,97.2827,29.1719,100.7427,189.9323,68015.0,999.0,422.0,-0.00090121884,-0.00132834,0.0
STARLINK-36923,2026-040B,2026-03-21T04:00:00.999936,15.75233031,0.00015486,97.2838,29.1756,95.4074,201.2972,68016.0,999.0,427.0,-0.00082299889,-0.00121388,0.0
STARLINK-36568,2026-040C,2026-03-21T04:00:00.999936,15.75171452,0.00012929,97.2844,29.1775,94.0019,206.7152,68017.0,999.0,427.0,0.00030373372,0.00045378,0.0
STARLINK-36930,2026-040D,2026-03-21T04:00:00.999936,15.75177001,0.0001609,97.2842,29.1741,102.2597,190.4486,68018.0,999.0,427.0,0.00018115807,0.00026962,0.0
STARLINK-36921,2026-040E,2026-03-21T04:00:00.999936,15.75149502,0.00014795,97.2838,29.1866,95.3154,219.4194,68019.0,999.0,427.0,1.1882818e-05,1.64e-05,0.0
